{
    "links": {
        "self": "http://www.neowsapp.com/rest/v1/neo/3819561?api_key=iIulBulltgU6a56xZRHN4H3l9WmuAYTsLGpBGhQ2"
    },
    "id": "3819561",
    "neo_reference_id": "3819561",
    "name": "(2018 HR1)",
    "designation": "2018 HR1",
    "nasa_jpl_url": "http://ssd.jpl.nasa.gov/sbdb.cgi?sstr=3819561",
    "absolute_magnitude_h": 24.2,
    "estimated_diameter": {
        "kilometers": {
            "estimated_diameter_min": 0.0384197891,
            "estimated_diameter_max": 0.0859092601
        },
        "meters": {
            "estimated_diameter_min": 38.4197891064,
            "estimated_diameter_max": 85.9092601232
        },
        "miles": {
            "estimated_diameter_min": 0.0238729428,
            "estimated_diameter_max": 0.0533815229
        },
        "feet": {
            "estimated_diameter_min": 126.0491808919,
            "estimated_diameter_max": 281.8545369825
        }
    },
    "is_potentially_hazardous_asteroid": false,
    "close_approach_data": [
        {
            "close_approach_date": "2018-05-04",
            "close_approach_date_full": "2018-May-04 19:03",
            "epoch_date_close_approach": 1525460580000,
            "relative_velocity": {
                "kilometers_per_second": "16.4624708263",
                "kilometers_per_hour": "59264.894974856",
                "miles_per_hour": "36824.9009914599"
            },
            "miss_distance": {
                "astronomical": "0.0446733348",
                "lunar": "17.3779272372",
                "kilometers": "6683035.731876876",
                "miles": "4152645.8430418488"
            },
            "orbiting_body": "Earth"
        }
    ],
    "orbital_data": {
        "orbit_id": "5",
        "orbit_determination_date": "2018-05-05 07:01:27",
        "first_observation_date": "2018-04-21",
        "last_observation_date": "2018-05-05",
        "data_arc_in_days": 14,
        "observations_used": 38,
        "orbit_uncertainty": "8",
        "minimum_orbit_intersection": ".0236427",
        "jupiter_tisserand_invariant": "3.688",
        "epoch_osculation": "2458233.5",
        "eccentricity": ".6063579109293733",
        "semi_major_axis": "1.909197819465873",
        "inclination": "2.681940710801269",
        "ascending_node_longitude": "155.2806220339153",
        "orbital_period": "963.5512549680429",
        "perihelion_distance": ".7515406181036315",
        "perihelion_argument": "140.3722782966015",
        "aphelion_distance": "3.066855020828115",
        "perihelion_time": "2458289.229107134710",
        "mean_anomaly": "339.1786078166013",
        "mean_motion": ".3736179037117643",
        "equinox": "J2000",
        "orbit_class": {
            "orbit_class_type": "APO",
            "orbit_class_description": "Near-Earth asteroid orbits which cross the Earth’s orbit similar to that of 1862 Apollo",
            "orbit_class_range": "a (semi-major axis) > 1.0 AU; q (perihelion) < 1.017 AU"
        }
    },
    "is_sentry_object": false
}